KUIPER-00589            
1 69767U 26151E   26192.91670139  .00049900  00000+0  13433-2 0  9993
2 69767  51.8752 196.2355 0005501 133.2645 119.6549 15.37350473  2141
KUIPER-00598            
1 69768U 26151F   26192.91670139  .00012231  00000+0  36004-3 0  9991
2 69768  51.8635 196.3516 0010077 156.8377  37.6972 15.35419589  2050
KUIPER-00604            
1 69769U 26151G   26192.91670139  .00051281  00000+0  13443-2 0  9991
2 69769  51.8796 196.1715 0002779  98.5211 183.0077 15.38168554  2460
KUIPER-00609            
1 69770U 26151H   26192.91670139  .00053381  00000+0  13806-2 0  9999
2 69770  51.8797 196.1408 0001025  46.7357 249.4778 15.38567226  1307
KUIPER-00611            
1 69771U 26151J   26192.91670139  .00052432  00000+0  13646-2 0  9998
2 69771  51.8800 196.1519 0001680  95.9300 192.9789 15.38380683  1301
KUIPER-00612            
1 69772U 26151K   26192.91670139  .00051715  00000+0  13685-2 0  9995
2 69772  51.8789 196.1946 0003785 106.4271 164.8356 15.37872509  1305
KUIPER-00614            
1 69773U 26151L   26192.91670139  .00052363  00000+0  13760-2 0  9990
2 69773  51.8799 196.1759 0002798 113.5456 165.0097 15.38084636  2040
KUIPER-00615            
1 69774U 26151M   26192.91670139  .00049262  00000+0  13341-2 0  9990
2 69774  51.8772 196.2472 0006206 136.4982 109.9875 15.37166294  1300
KUIPER-00616            
1 69775U 26151N   26192.91670139  .00052686  00000+0  13736-2 0  9993
2 69775  51.8781 196.1715 0003211 112.7769 170.4392 15.38322481  1303
KUIPER-00617            
1 69776U 26151P   26192.91670139  .00051670  00000+0  13745-2 0  9996
2 69776  51.8794 196.2017 0004132 125.0028 142.1221 15.37709451  1304
KUIPER-00619            
1 69777U 26151Q   26192.91670139  .00053446  00000+0  13867-2 0  9995
2 69777  51.8799 196.1459 0001688  56.8707 235.9297 15.38469023  1535
KUIPER-00621            
1 69778U 26151R   26192.91670139  .00051985  00000+0  13585-2 0  9999
2 69778  51.8791 196.1667 0002061 104.4617 180.2325 15.38258784  2282
KUIPER-00622            
1 69779U 26151S   26192.91670139  .00048698  00000+0  13291-2 0  9991
2 69779  51.8732 196.2627 0006931 137.7429 102.0031 15.36926682  2143
KUIPER-00623            
1 69780U 26151T   26192.91670139  .00050294  00000+0  13531-2 0  9995
2 69780  51.8776 196.2257 0005115 124.6136 132.1989 15.37367875  2268
KUIPER-00626            
1 69781U 26151U   26192.91670139  .00041151  00000+0  11745-2 0  9993
2 69781  51.8713 196.3327 0010043 156.3103  48.7603 15.35582658  2509
KUIPER-00627            
1 69782U 26151V   26192.91670139  .00046242  00000+0  13213-2 0  9992
2 69782  51.8687 196.3503 0011385 157.4987  38.8040 15.35481130  1303
