{"fetched_at":"2026-07-12T07:15:18.323Z","source":"https://celestrak.org/NORAD/elements/gp.php?GROUP=kuiper&FORMAT=JSON","constellation":"kuiper","records":[{"OBJECT_NAME":"KUIPER-00589","OBJECT_ID":"2026-151E","EPOCH":"2026-07-11T22:00:03.000096","CLASSIFICATION_TYPE":"U","MEAN_MOTION":15.37350473,"ECCENTRICITY":0.00055017,"INCLINATION":51.8752,"RA_OF_ASC_NODE":196.2355,"ARG_OF_PERICENTER":133.2645,"MEAN_ANOMALY":119.6549,"EPHEMERIS_TYPE":0,"NORAD_CAT_ID":69767,"ELEMENT_SET_NO":999,"REV_AT_EPOCH":214,"BSTAR":0.0013433175,"MEAN_MOTION_DOT":0.000499,"MEAN_MOTION_DDOT":0},{"OBJECT_NAME":"KUIPER-00598","OBJECT_ID":"2026-151F","EPOCH":"2026-07-11T22:00:03.000096","CLASSIFICATION_TYPE":"U","MEAN_MOTION":15.35419589,"ECCENTRICITY":0.00100772,"INCLINATION":51.8635,"RA_OF_ASC_NODE":196.3516,"ARG_OF_PERICENTER":156.8377,"MEAN_ANOMALY":37.6972,"EPHEMERIS_TYPE":0,"NORAD_CAT_ID":69768,"ELEMENT_SET_NO":999,"REV_AT_EPOCH":205,"BSTAR":0.00036003955,"MEAN_MOTION_DOT":0.00012231,"MEAN_MOTION_DDOT":0},{"OBJECT_NAME":"KUIPER-00604","OBJECT_ID":"2026-151G","EPOCH":"2026-07-11T22:00:03.000096","CLASSIFICATION_TYPE":"U","MEAN_MOTION":15.38168554,"ECCENTRICITY":0.00027795,"INCLINATION":51.8796,"RA_OF_ASC_NODE":196.1715,"ARG_OF_PERICENTER":98.5211,"MEAN_ANOMALY":183.0077,"EPHEMERIS_TYPE":0,"NORAD_CAT_ID":69769,"ELEMENT_SET_NO":999,"REV_AT_EPOCH":246,"BSTAR":0.0013442801,"MEAN_MOTION_DOT":0.00051281,"MEAN_MOTION_DDOT":0},{"OBJECT_NAME":"KUIPER-00609","OBJECT_ID":"2026-151H","EPOCH":"2026-07-11T22:00:03.000096","CLASSIFICATION_TYPE":"U","MEAN_MOTION":15.38567226,"ECCENTRICITY":0.00010254,"INCLINATION":51.8797,"RA_OF_ASC_NODE":196.1408,"ARG_OF_PERICENTER":46.7357,"MEAN_ANOMALY":249.4778,"EPHEMERIS_TYPE":0,"NORAD_CAT_ID":69770,"ELEMENT_SET_NO":999,"REV_AT_EPOCH":130,"BSTAR":0.0013805837,"MEAN_MOTION_DOT":0.00053381,"MEAN_MOTION_DDOT":0},{"OBJECT_NAME":"KUIPER-00611","OBJECT_ID":"2026-151J","EPOCH":"2026-07-11T22:00:03.000096","CLASSIFICATION_TYPE":"U","MEAN_MOTION":15.38380683,"ECCENTRICITY":0.00016802,"INCLINATION":51.88,"RA_OF_ASC_NODE":196.1519,"ARG_OF_PERICENTER":95.93,"MEAN_ANOMALY":192.9789,"EPHEMERIS_TYPE":0,"NORAD_CAT_ID":69771,"ELEMENT_SET_NO":999,"REV_AT_EPOCH":130,"BSTAR":0.0013646348,"MEAN_MOTION_DOT":0.00052432,"MEAN_MOTION_DDOT":0},{"OBJECT_NAME":"KUIPER-00612","OBJECT_ID":"2026-151K","EPOCH":"2026-07-11T22:00:03.000096","CLASSIFICATION_TYPE":"U","MEAN_MOTION":15.37872509,"ECCENTRICITY":0.00037851,"INCLINATION":51.8789,"RA_OF_ASC_NODE":196.1946,"ARG_OF_PERICENTER":106.4271,"MEAN_ANOMALY":164.8356,"EPHEMERIS_TYPE":0,"NORAD_CAT_ID":69772,"ELEMENT_SET_NO":999,"REV_AT_EPOCH":130,"BSTAR":0.0013684527,"MEAN_MOTION_DOT":0.00051715,"MEAN_MOTION_DDOT":0},{"OBJECT_NAME":"KUIPER-00614","OBJECT_ID":"2026-151L","EPOCH":"2026-07-11T22:00:03.000096","CLASSIFICATION_TYPE":"U","MEAN_MOTION":15.38084636,"ECCENTRICITY":0.00027988,"INCLINATION":51.8799,"RA_OF_ASC_NODE":196.1759,"ARG_OF_PERICENTER":113.5456,"MEAN_ANOMALY":165.0097,"EPHEMERIS_TYPE":0,"NORAD_CAT_ID":69773,"ELEMENT_SET_NO":999,"REV_AT_EPOCH":204,"BSTAR":0.0013759794,"MEAN_MOTION_DOT":0.00052363,"MEAN_MOTION_DDOT":0},{"OBJECT_NAME":"KUIPER-00615","OBJECT_ID":"2026-151M","EPOCH":"2026-07-11T22:00:03.000096","CLASSIFICATION_TYPE":"U","MEAN_MOTION":15.37166294,"ECCENTRICITY":0.00062066,"INCLINATION":51.8772,"RA_OF_ASC_NODE":196.2472,"ARG_OF_PERICENTER":136.4982,"MEAN_ANOMALY":109.9875,"EPHEMERIS_TYPE":0,"NORAD_CAT_ID":69774,"ELEMENT_SET_NO":999,"REV_AT_EPOCH":130,"BSTAR":0.0013341178,"MEAN_MOTION_DOT":0.00049262,"MEAN_MOTION_DDOT":0},{"OBJECT_NAME":"KUIPER-00616","OBJECT_ID":"2026-151N","EPOCH":"2026-07-11T22:00:03.000096","CLASSIFICATION_TYPE":"U","MEAN_MOTION":15.38322481,"ECCENTRICITY":0.00032113,"INCLINATION":51.8781,"RA_OF_ASC_NODE":196.1715,"ARG_OF_PERICENTER":112.7769,"MEAN_ANOMALY":170.4392,"EPHEMERIS_TYPE":0,"NORAD_CAT_ID":69775,"ELEMENT_SET_NO":999,"REV_AT_EPOCH":130,"BSTAR":0.0013736305,"MEAN_MOTION_DOT":0.00052686,"MEAN_MOTION_DDOT":0},{"OBJECT_NAME":"KUIPER-00617","OBJECT_ID":"2026-151P","EPOCH":"2026-07-11T22:00:03.000096","CLASSIFICATION_TYPE":"U","MEAN_MOTION":15.37709451,"ECCENTRICITY":0.00041328,"INCLINATION":51.8794,"RA_OF_ASC_NODE":196.2017,"ARG_OF_PERICENTER":125.0028,"MEAN_ANOMALY":142.1221,"EPHEMERIS_TYPE":0,"NORAD_CAT_ID":69776,"ELEMENT_SET_NO":999,"REV_AT_EPOCH":130,"BSTAR":0.0013744657,"MEAN_MOTION_DOT":0.0005167,"MEAN_MOTION_DDOT":0},{"OBJECT_NAME":"KUIPER-00619","OBJECT_ID":"2026-151Q","EPOCH":"2026-07-11T22:00:03.000096","CLASSIFICATION_TYPE":"U","MEAN_MOTION":15.38469023,"ECCENTRICITY":0.0001688,"INCLINATION":51.8799,"RA_OF_ASC_NODE":196.1459,"ARG_OF_PERICENTER":56.8707,"MEAN_ANOMALY":235.9297,"EPHEMERIS_TYPE":0,"NORAD_CAT_ID":69777,"ELEMENT_SET_NO":999,"REV_AT_EPOCH":153,"BSTAR":0.0013866673,"MEAN_MOTION_DOT":0.00053446,"MEAN_MOTION_DDOT":0},{"OBJECT_NAME":"KUIPER-00621","OBJECT_ID":"2026-151R","EPOCH":"2026-07-11T22:00:03.000096","CLASSIFICATION_TYPE":"U","MEAN_MOTION":15.38258784,"ECCENTRICITY":0.00020611,"INCLINATION":51.8791,"RA_OF_ASC_NODE":196.1667,"ARG_OF_PERICENTER":104.4617,"MEAN_ANOMALY":180.2325,"EPHEMERIS_TYPE":0,"NORAD_CAT_ID":69778,"ELEMENT_SET_NO":999,"REV_AT_EPOCH":228,"BSTAR":0.0013585268,"MEAN_MOTION_DOT":0.00051985,"MEAN_MOTION_DDOT":0},{"OBJECT_NAME":"KUIPER-00622","OBJECT_ID":"2026-151S","EPOCH":"2026-07-11T22:00:03.000096","CLASSIFICATION_TYPE":"U","MEAN_MOTION":15.36926682,"ECCENTRICITY":0.00069319,"INCLINATION":51.8732,"RA_OF_ASC_NODE":196.2627,"ARG_OF_PERICENTER":137.7429,"MEAN_ANOMALY":102.0031,"EPHEMERIS_TYPE":0,"NORAD_CAT_ID":69779,"ELEMENT_SET_NO":999,"REV_AT_EPOCH":214,"BSTAR":0.0013291122,"MEAN_MOTION_DOT":0.00048698,"MEAN_MOTION_DDOT":0},{"OBJECT_NAME":"KUIPER-00623","OBJECT_ID":"2026-151T","EPOCH":"2026-07-11T22:00:03.000096","CLASSIFICATION_TYPE":"U","MEAN_MOTION":15.37367875,"ECCENTRICITY":0.00051157,"INCLINATION":51.8776,"RA_OF_ASC_NODE":196.2257,"ARG_OF_PERICENTER":124.6136,"MEAN_ANOMALY":132.1989,"EPHEMERIS_TYPE":0,"NORAD_CAT_ID":69780,"ELEMENT_SET_NO":999,"REV_AT_EPOCH":226,"BSTAR":0.0013530881,"MEAN_MOTION_DOT":0.00050294,"MEAN_MOTION_DDOT":0},{"OBJECT_NAME":"KUIPER-00626","OBJECT_ID":"2026-151U","EPOCH":"2026-07-11T22:00:03.000096","CLASSIFICATION_TYPE":"U","MEAN_MOTION":15.35582658,"ECCENTRICITY":0.00100436,"INCLINATION":51.8713,"RA_OF_ASC_NODE":196.3327,"ARG_OF_PERICENTER":156.3103,"MEAN_ANOMALY":48.7603,"EPHEMERIS_TYPE":0,"NORAD_CAT_ID":69781,"ELEMENT_SET_NO":999,"REV_AT_EPOCH":250,"BSTAR":0.0011745338,"MEAN_MOTION_DOT":0.00041151,"MEAN_MOTION_DDOT":0},{"OBJECT_NAME":"KUIPER-00627","OBJECT_ID":"2026-151V","EPOCH":"2026-07-11T22:00:03.000096","CLASSIFICATION_TYPE":"U","MEAN_MOTION":15.3548113,"ECCENTRICITY":0.00113852,"INCLINATION":51.8687,"RA_OF_ASC_NODE":196.3503,"ARG_OF_PERICENTER":157.4987,"MEAN_ANOMALY":38.804,"EPHEMERIS_TYPE":0,"NORAD_CAT_ID":69782,"ELEMENT_SET_NO":999,"REV_AT_EPOCH":130,"BSTAR":0.001321289,"MEAN_MOTION_DOT":0.00046242,"MEAN_MOTION_DDOT":0}]}
